H1 CPF  1  DLR 2022 05 13 10  6332 technosat            
H2  1704205 6203    42829 2022 05 13 00 00 00 2022 05 20 00 00 00    60 1 1  0 0 0
H9
10 0 59715  43200.000000  0       1817367.251      -4695714.748       4809176.466
10 0 59715  43260.000000  0       1606865.768      -4433674.913       5120997.255
10 0 59715  43320.000000  0       1391962.579      -4151052.047       5411037.222
10 0 59715  43380.000000  0       1173739.891      -3849004.668       5678061.319
10 0 59715  43440.000000  0        953283.519      -3528783.094       5920932.533
10 0 59715  43500.000000  0        731677.482      -3191724.066       6138616.609
10 0 59715  43560.000000  0        509998.671      -2839245.037       6330186.361
10 0 59715  43620.000000  0        289311.605      -2472838.054       6494825.536
10 0 59715  43680.000000  0         70663.332      -2094063.312       6631832.165
10 0 59715  43740.000000  0       -144921.519      -1704542.490       6740621.484
10 0 59715  43800.000000  0       -356445.577      -1305951.723       6820728.473
10 0 59715  43860.000000  0       -562943.356       -900014.245       6871809.804
10 0 59715  43920.000000  0       -763485.667       -488492.870       6893645.287
10 0 59715  43980.000000  0       -957183.855        -73182.264       6886138.828
10 0 59715  44040.000000  0      -1143193.787        344098.953       6849318.857
10 0 59715  44100.000000  0      -1320719.565        761516.244       6783338.263
10 0 59715  44160.000000  0      -1489016.968       1177227.271       6688473.807
10 0 59715  44220.000000  0      -1647396.643       1589390.095       6565125.081
10 0 59715  44280.000000  0      -1795227.009       1996171.433       6413812.918
10 0 59715  44340.000000  0      -1931936.823       2395754.906       6235177.324
10 0 59715  44400.000000  0      -2057017.461       2786349.312       6029974.900
10 0 59715  44460.000000  0      -2170024.842       3166196.789       5799075.724
10 0 59715  44520.000000  0      -2270581.018       3533580.862       5543459.873
10 0 59715  44580.000000  0      -2358375.506       3886834.473       5264213.421
10 0 59715  44640.000000  0      -2433166.230       4224347.798       4962523.897
10 0 59715  44700.000000  0      -2494780.090       4544575.855       4639675.298
10 0 59715  44760.000000  0      -2543113.187       4846045.862       4297042.665
10 0 59715  44820.000000  0      -2578130.697       5127364.319       3936086.207
10 0 59715  44880.000000  0      -2599866.369       5387223.748       3558344.989
10 0 59715  44940.000000  0      -2608421.651       5624409.014       3165430.236
10 0 59715  45000.000000  0      -2603964.466       5837803.240       2759018.339
10 0 59715  45060.000000  0      -2586727.666       6026393.302       2340843.537
10 0 59715  45120.000000  0      -2557007.130       6189274.855       1912690.287
10 0 59715  45180.000000  0      -2515159.514       6325656.813       1476385.390
10 0 59715  45240.000000  0      -2461599.684       6434865.301       1033789.941
10 0 59715  45300.000000  0      -2396797.867       6516347.054        586791.089
10 0 59715  45360.000000  0      -2321276.518       6569672.203        137293.663
10 0 59715  45420.000000  0      -2235606.928       6594536.478       -312788.232
10 0 59715  45480.000000  0      -2140405.611       6590762.827       -761539.724
10 0 59715  45540.000000  0      -2036330.465       6558302.371      -1207053.732
10 0 59715  45600.000000  0      -1924076.638       6497234.600      -1647439.499
10 0 59715  45660.000000  0      -1804372.275       6407766.797      -2080830.806
10 0 59715  45720.000000  0      -1677974.164       6290232.985      -2505393.967
10 0 59715  45780.000000  0      -1545663.277       6145092.294      -2919335.610
10 0 59715  45840.000000  0      -1408240.268       5972926.823      -3320910.243
10 0 59715  45900.000000  0      -1266520.926       5774438.907      -3708427.616
10 0 59715  45960.000000  0      -1121331.605       5550447.784      -4080259.774
10 0 59715  46020.000000  0       -973504.665       5301885.733      -4434847.700
10 0 59715  46080.000000  0       -823873.948       5029793.807      -4770707.597
10 0 59715  46140.000000  0       -673270.315       4735317.117      -5086436.833
10 0 59715  46200.000000  0       -522517.254       4419699.676      -5380719.517
10 0 59715  46260.000000  0       -372426.587       4084278.817      -5652331.663
10 0 59715  46320.000000  0       -223794.295       3730479.221      -5900145.915
10 0 59715  46380.000000  0        -77396.502       3359806.618      -6123135.812
10 0 59715  46440.000000  0         66014.370       2973841.174      -6320379.588
10 0 59715  46500.000000  0        205713.235       2574230.667      -6491063.500
10 0 59715  46560.000000  0        341005.809       2162683.489      -6634484.766
10 0 59715  46620.000000  0        471231.890       1740961.419      -6750054.149
10 0 59715  46680.000000  0        595768.407       1310872.122      -6837298.047
10 0 59715  46740.000000  0        714032.241        874261.555      -6895860.084
10 0 59715  46800.000000  0        825482.820        433006.283      -6925502.361
10 0 59715  46860.000000  0        929624.470        -10994.416      -6926106.272
10 0 59715  46920.000000  0       1026008.508       -455826.501      -6897672.796
10 0 59715  46980.000000  0       1114235.076       -899569.096      -6840322.372
10 0 59715  47040.000000  0       1193954.736      -1340302.467      -6754294.403
10 0 59715  47100.000000  0       1264869.784      -1776115.998      -6639946.341
10 0 59715  47160.000000  0       1326735.338      -2205116.153      -6497752.416
10 0 59715  47220.000000  0       1379360.193      -2625434.463      -6328301.948
10 0 59715  47280.000000  0       1422607.348      -3035235.493      -6132297.236
10 0 59715  47340.000000  0       1456394.251      -3432724.804      -5910551.008
10 0 59715  47400.000000  0       1480692.775      -3816156.764      -5663983.325
10 0 59715  47460.000000  0       1495528.944      -4183842.141      -5393618.085
10 0 59715  47520.000000  0       1500982.397      -4534155.499      -5100579.131
10 0 59715  47580.000000  0       1497185.582      -4865542.424      -4786086.023
10 0 59715  47640.000000  0       1484322.661      -5176526.590      -4451449.395
10 0 59715  47700.000000  0       1462628.125      -5465716.581      -4098065.853
10 0 59715  47760.000000  0       1432385.129      -5731812.359      -3727412.448
10 0 59715  47820.000000  0       1393923.593      -5973611.372      -3341040.780
10 0 59715  47880.000000  0       1347618.057      -6190014.302      -2940570.775
10 0 59715  47940.000000  0       1293885.312      -6380030.434      -2527684.086
10 0 59715  48000.000000  0       1233181.787      -6542782.553      -2104117.155
10 0 59715  48060.000000  0       1166000.718      -6677511.360      -1671653.999
10 0 59715  48120.000000  0       1092869.082      -6783579.396      -1232118.717
10 0 59715  48180.000000  0       1014344.313      -6860474.387       -787367.732
10 0 59715  48240.000000  0        931010.911      -6907811.997       -339281.860
10 0 59715  48300.000000  0        843476.902      -6925338.003        110241.737
10 0 59715  48360.000000  0        752370.136      -6912929.904        559297.727
10 0 59715  48420.000000  0        658334.473      -6870597.871       1005980.897
10 0 59715  48480.000000  0        562025.911      -6798485.077       1448394.460
10 0 59715  48540.000000  0        464108.637      -6696867.394       1884658.395
10 0 59715  48600.000000  0        365251.045      -6566152.395       2312917.727
10 0 59715  48660.000000  0        266121.732      -6406877.670       2731350.703
10 0 59715  48720.000000  0        167385.506      -6219708.480       3138176.758
10 0 59715  48780.000000  0         69699.385      -6005434.821       3531664.260
10 0 59715  48840.000000  0        -26291.308      -5764967.952       3910137.960
10 0 59715  48900.000000  0       -119956.732      -5499336.412       4271986.276
10 0 59715  48960.000000  0       -210686.253      -5209681.417       4615668.331
10 0 59715  49020.000000  0       -297892.031      -4897251.672       4939720.570
10 0 59715  49080.000000  0       -381012.415      -4563397.788       5242762.996
10 0 59715  49140.000000  0       -459515.196      -4209566.260       5523505.121
10 0 59715  49200.000000  0       -532900.680      -3837292.912       5780751.517
10 0 59715  49260.000000  0       -600704.559      -3448195.925       6013406.856
10 0 59715  49320.000000  0       -662500.550      -3043968.557       6220480.439
10 0 59715  49380.000000  0       -717902.811      -2626371.597       6401090.253
10 0 59715  49440.000000  0       -766568.127      -2197225.622       6554466.610
10 0 59715  49500.000000  0       -808197.825      -1758402.971       6679955.385
10 0 59715  49560.000000  0       -842539.458      -1311819.483       6777020.778
10 0 59715  49620.000000  0       -869388.225       -859426.013       6845247.603
10 0 59715  49680.000000  0       -888588.142       -403199.794       6884343.030
10 0 59715  49740.000000  0       -900032.905         54864.272       6894137.810
10 0 59715  49800.000000  0       -903666.449        512762.417       6874587.043
10 0 59715  49860.000000  0       -899483.222        968490.872       6825770.418
10 0 59715  49920.000000  0       -887528.168       1420054.714       6747891.911
10 0 59715  49980.000000  0       -867896.432       1865476.681       6641279.034
10 0 59715  50040.000000  0       -840732.783       2302805.954       6506381.535
10 0 59715  50100.000000  0       -806230.746       2730126.790       6343769.613
10 0 59715  50160.000000  0       -764631.483       3145567.081       6154131.688
10 0 59715  50220.000000  0       -716222.389       3547306.784       5938271.575
10 0 59715  50280.000000  0       -661335.398       3933586.061       5697105.164
10 0 59715  50340.000000  0       -600345.023       4302713.186       5431656.673
99
